SPOT 5                  
1 27421U 02021A   08108.08606897  .00000025  00000-0  32262-4 0  8504
2 27421  98.6871 180.9097 0000559 116.7267 243.3975 14.20041373308694
AQUA                    
1 27424U 02022A   08107.41719995  .00000053  00000-0  21871-4 0  7557
2 27424  98.2262  48.7208 0001261  66.5462 293.5874 14.57116166316611
HAIYANG-1A              
1 27430U 02024A   08107.78226165  .00000046  00000-0  34936-4 0  7499
2 27430  98.5326 177.7719 0008068 254.4210 105.6081 14.29645228309141
ALSAT 1                 
1 27559U 02054A   08108.03180883  .00000025  00000-0  13773-4 0  1485
2 27559  98.0046 350.7167 0010588 345.1327  14.9565 14.62957297287383
ADEOS II                
1 27597U 02056A   08107.78078031  .00000109  00000-0  63444-4 0  5376
2 27597  98.5230 178.7131 0001727  90.7313 269.4065 14.26123273278018
ICESAT                  
1 27642U 03002A   08108.21408143  .00000212  00000-0  22884-4 0  8325
2 27642  94.0025  76.3946 0002446  68.4428 291.7059 14.90877875286203
ORBVIEW 3               
1 27838U 03030A   08108.06360281  .00001710  00000-0  45965-4 0  1632
2 27838  97.1097 174.2129 0001959 111.7539 332.6070 15.39242183269826
IRS P6                  
1 28051U 03046A   08108.16008065  .00000012  00000-0  25562-4 0  3926
2 28051  98.7536 182.3582 0001107 309.7563  50.3517 14.21609736233588
CBERS 2                 
1 28057U 03049A   08108.10035678  .00000070  00000-0  38961-4 0  1894
2 28057  98.3391 169.7862 0002561  68.6868 291.4597 14.35327378235282
TANSUO 1                
1 28220U 04012A   08108.14755552  .00000190  00000-0  25963-4 0  8530
2 28220  97.5493 160.9268 0011955 162.4042 197.7544 14.88494272217034
ROCSAT 2                
1 28254U 04018A   08108.13556355  .00000106  00000-0  10000-3 0  4945
2 28254  98.9333 172.9827 0002149  60.6173 332.6186 14.00825058199879
AURA                    
1 28376U 04026A   08108.17932005  .00000027  00000-0  15957-4 0  1781
2 28376  98.2246  51.6504 0001222  61.0770 299.0553 14.57166665199771
PARASOL                 
1 28498U 04049G   08108.17412880  .00000001  00000-0  10389-4 0   959
2 28498  98.2286  49.1566 0001328  78.1128 282.0219 14.57091993177041
CARTOSAT-1              
1 28649U 05017A   08108.02386868 -.00000999  00000-0 -11750-3 0  3798
2 28649  97.9094 180.7151 0001830  52.8055 307.3299 14.82627212159710
TOPSAT                  
1 28891U 05043B   08108.08631162  .00000021  00000-0  14054-4 0  8040
2 28891  98.1000   3.1339 0016126 239.4839 120.4777 14.59714604131702
SINAH 1                 
1 28893U 05043D   08108.15420831  .00000016  00000-0  12952-4 0  7700
2 28893  98.1006   3.7659 0014524 240.1227 119.8541 14.60037226131746
ALOS (DAICHI)           
1 28931U 06002A   08108.07654266  .00000058  00000-0  21808-4 0  5301
2 28931  98.1391 182.3959 0001299 100.1218 260.0128 14.59581007118747
EROS-B                  
1 29079U 06014A   08108.06897943  .00001301  00000-0  61587-4 0  2709
2 29079  97.3991 228.9535 0008965  88.0364  26.4596 15.21091979109723
RSS-1 (YAOGAN 1)        
1 29092U 06015A   08108.03589623  .00000067  00000-0  15389-4 0  2421
2 29092  97.8171 106.7202 0002042  81.6380 278.5065 14.80277364106720
RESURS-DK 1             
1 29228U 06021A   08108.06029021  .00000831  00000-0  20120-4 0  1004
2 29228  69.9315  71.3898 0158822 134.0256 348.8190 15.34531640102975
ARIRANG 2 (KOMPSAT-2)   
1 29268U 06031A   08108.04031287  .00000061  00000-0  21571-4 0  9402
2 29268  98.0844   5.2452 0019073  45.8503 314.4265 14.61634609 91831
LAPAN-TUBSAT            
1 29709U 07001A   08108.06223269 -.00000009  00000-0  56377-5 0  4103
2 29709  97.8713 167.3501 0012257 226.3698 133.6502 14.80209425 68447
CARTOSAT 2              
1 29710U 07001B   08108.06421533  .00000012  00000-0  86213-5 0  4193
2 29710  97.9373 169.7649 0001380  30.8515 329.2783 14.78641141 68415
HAIYANG-1B              
1 31113U 07010A   08108.10545959 -.00000000  00000-0  17364-4 0  1428
2 31113  98.5845 183.1796 0021745 209.5830 150.4128 14.28042411 53096
TERRASAR-X              
1 31698U 07026A   08108.16513589  .00000143  00000-0  10000-4 0  9417
2 31698  97.4457 115.6551 0003740  81.6853   8.9316 15.19147858 46594
WORLDVIEW-1             
1 32060U 07041A   08108.06398370  .00000542  00000-0  25237-4 0  6740
2 32060  97.4683 181.9536 0001207 118.4880 359.6255 15.24131444 32170
